ONEWEB-0627             
1 55168U 23004AE  23040.29262807  .00005349  00000+0  52399-3 0  9990
2 55168  86.5072 272.4353 0016477 119.0152 241.2729 14.91985596  4632
ONEWEB-0628             
1 55169U 23004AF  23039.68794133  .00006489  00000+0  63566-3 0  9998
2 55169  86.5106 272.7123 0015246 120.8344 239.4387 14.92040417  4549
ONEWEB-0629             
1 55170U 23004AG  23040.22137761  .00013318  00000+0  13000-2 0  9996
2 55170  86.5088 272.4672 0016974 121.7073 238.5812 14.92214653  4621
ONEWEB-0631             
1 55171U 23004AH  23040.29378411  .00005190  00000+0  50906-3 0  9999
2 55171  86.5099 272.4435 0016821 117.4007 242.8935 14.91928344  4634
ONEWEB-0709             
1 55172U 23004AJ  23040.17799616  .00002690  00000+0  39531-3 0  9994
2 55172  86.6316 272.8332 0012787 115.8553 244.3986 14.75077433  4597
ONEWEB-0710             
1 55173U 23004AK  23039.82586035  .00005414  00000+0  53237-3 0  9990
2 55173  86.5088 272.6500 0016150 118.4334 241.8523 14.91843362  4568
ONEWEB-0711             
1 55174U 23004AL  23040.12951856  .00002974  00000+0  43721-3 0  9998
2 55174  86.6305 272.8974 0011389 113.0676 247.1744 14.75108642  4581
ONEWEB-0713             
1 55175U 23004AM  23039.72570448  .00002645  00000+0  38881-3 0  9993
2 55175  86.6317 273.0757 0011687 113.7877 246.4569 14.75061029  4526
ONEWEB-0715             
1 55176U 23004AN  23040.19352050  .00002805  00000+0  41249-3 0  9994
2 55176  86.6354 272.8798 0011218 112.5802 247.6604 14.75070375  4599
ONEWEB-0716             
1 55177U 23004AP  23040.30130751  .00005048  00000+0  50002-3 0  9999
2 55177  86.5096 272.4498 0015272 112.9771 247.3069 14.91548300  4631
ONEWEB-0717             
1 55178U 23004AQ  23039.91154130  .00005658  00000+0  57040-3 0  9998
2 55178  86.5068 272.6237 0012301 114.1661 246.0854 14.90900540  4574
ONEWEB-0719             
1 55179U 23004AR  23040.30734839  .00005266  00000+0  52591-3 0  9995
2 55179  86.5081 272.4451 0014004 111.1145 249.1581 14.91249078  4633
